University or School Name,Website,Street Address,City,State,Zip,Library Name,Library Website,Twitter Profile,Blog,Facebook Page,Staff Directory Page
Samford Cumberland School of Law,http://cumberland.samford.edu,800 Lakeshore Drive,Birmingham,AL,35229,Lucille Stewart Beeson Law Library,http://lawlib.samford.edu/,https://twitter.com/BeesonLawLib,http://lawlib.samford.edu,http://www.facebook.com/Beeson.Law.Library,http://lawlib.samford.edu/?page_id=29
Faulkner University (Thomas Goode Jones School of Law),http://www.faulkner.edu/jsl/,5345 Atlanta Highway,Montgomery,AL,36109,Jones Library,https://www.faulkner.edu/law/jones-library/,https://twitter.com/JSL_Library,none found,https://www.facebook.com/faulkneruniversitylawlibrary/,http://libguides.faulkner.edu/c.php?g=401679&p=2732146
University of Alabama,http://www.law.ua.edu/,101 Paul Bryant Dr,Tuscaloosa,AL,35487,Bounds Law Library,http://www.library.law.ua.edu/,none found,http://www.law.ua.edu/specialcollections/,none found,http://www.library.law.ua.edu/info/directory/index.php
University of Arkansas - Fayetteville,http://law.uark.edu/,1045 W. Maple St.,Fayetteville,AR,72701,Young Law Library,http://law.uark.edu/library/research/,https://twitter.com/UALawLibrary,none found,https://www.facebook.com/YoungLawLibrary,http://law.uark.edu/directory/?dept=LLIB
University of Arkansas - Little Rock,http://www.law.ualr.edu/,1201 McMath Avenue ,Little Rock,AR,72202,Bowen School of Law Library,http://ualr.edu/law/library/,none found,none found,https://www.facebook.com/BowenLawLibrary/,http://ualr.edu/lawlibrary/2-2/library-staff/
Arizona Summit Law School,http://www.azsummitlaw.edu,One North Central Ave.,Phoenix,AZ,85004,Law School Library,http://www.azsummitlaw.edu/student-resources/law-library,https://twitter.com/AzSummitLibrary,http://www.azsummitlaw.edu/blogs/library,https://www.facebook.com/ArizonaSummitLawSchoolLibrary,none found
Arizona State University (Sandra Day O'Connor College of Law),http://www.law.asu.edu/,1102 S MCALLISTER AVE,Tempe,AZ,85287-7806,Ross-Blakley Law Library,http://www.law.asu.edu/library/RossBlakleyLawLibrary.aspx,https://twitter.com/asulawlibrary,http://lawlibnews.lawnews-asu.org,https://www.facebook.com/ArizonaStateUniversityLawLibrary/,https://web.law.asu.edu/library/RossBlakleyLawLibrary/LibraryInformation/Staff.aspx
University of Arizona,http://www.law.arizona.edu/,1201 East Speedway Boulevard,Tucson,AZ,85721,Daniel F. Cracchiolo Law Library,http://lawlibrary.arizona.edu/,https://twitter.com/UALawLib,none found,https://www.facebook.com/University-of-Arizona-Law-Library-157015764368304/,http://lawlibrary.arizona.edu/people
University of California at Berkeley (Boalt Hall),http://www.law.berkeley.edu/,"Boalt Hall, Mail Stop 7210",Berkeley,CA,94720-7210,Garret W. McEnerney Law Library,https://www.law.berkeley.edu/law-library/,https://twitter.com/BerkLawLibrary,none found,none found,https://www.law.berkeley.edu/library/dynamic/staff.php
Whittier Law School,http://www.law.whittier.edu/,3333 Harbor Boulevard,Costa Mesa,CA,92626,Law Library,https://www.law.whittier.edu/index/law-library/,none found,none found,none found,none found
University of California - Davis,http://www.law.ucdavis.edu/,400 Mrak Hall Drive,Davis,CA,95616-5203,Mabie Law Library,https://law.ucdavis.edu/library/,none found,https://law.ucdavis.edu/library/news/,none found,https://law.ucdavis.edu/library/about/staff.html
Western State College of Law,http://www.wsulaw.edu/,1111 North State College Blvd,Fullerton,CA,92831-3014,Law Library,http://westl.iii.com/,none found,http://wsulawlibrary.blogspot.com,none found,http://westl.iii.com/screens/staff.html
University of California - Irvine,http://www.law.uci.edu/,401 E. Peltason Drive,Irvine,CA,92697-8010,Law Library,http://www.law.uci.edu/library/,none found,http://sites.uci.edu/lawlibrary/,https://www.facebook.com/UCILawLibrary/,http://www.law.uci.edu/library/about/staff.html
Loyola Marymount University,http://www.lls.edu/,919 Albany St.,Los Angeles,CA,90015,William M. Rains Library,http://www.lls.edu/resources/library/,https://twitter.com/llslawlib,none found,none found,http://www.lls.edu/resources/library/aboutthelibrary/staffdirectory/#d.en.26324
Southwestern Law School,http://www.swlaw.edu/,3050 Wilshire Boulevard,Los Angeles,CA,90010,Leigh H. Taylor Law Library,http://library.swlaw.edu/,none found,none found,none found,http://www.swlaw.edu/library/law_library_staff
University of California - Los Angeles,http://www.law.ucla.edu/,"385 Charles E. Young Drive, East",Los Angeles,CA,90095-1458,Hugh & Hazel Darling Law Library,http://www.law.ucla.edu/library,https://twitter.com/uclalawlibrary,none found,https://www.facebook.com/uclalawlibrary,http://www.law.ucla.edu/library/library-staff-directory/
University of Southern California,http://www.usc.edu/dept/law-lib/index.html,699 Exposition Boulevard ,Los Angeles,CA,90089,Asa V. Call Law Library,http://weblaw.usc.edu/library/index.cfm,https://twitter.com/USCLawLibrary,none found,https://www.facebook.com/USCLawLibrary/,http://weblaw.usc.edu/library/services/staff.cfm
Pepperdine University School of Law,http://law.pepperdine.edu/,24255 Pacific Coast Highway,Malibu,CA,90263,Jerene Appleby Harnish Law Library,http://law.pepperdine.edu/library/,https://twitter.com/PeppLawLibrary,http://lawcomm.pepperdine.edu/blogs/library/,https://www.facebook.com/pepperdinelawlibrary/,http://law.pepperdine.edu/library/directory.htm
University of La Verne,http://law.laverne.edu/,320 East D Street,Ontario,CA,91764,Law Library,http://lawlibrary.laverne.edu/,none found,none found,https://www.facebook.com/lavernelawlibrary/,http://lawlibrary.laverne.edu/about_staffdir.php
Chapman University (Fowler School of Law),http://www.chapman.edu/law/,1 University Drive,Orange,CA,92866,Hugh & Hazel Darling Law Library ,http://www.chapman.edu/law/student-resources/library/index.aspx,none found,none found,none found,http://www.chapman.edu/law/student-resources/library/library-staff.aspx
University of the Pacific (McGeorge School of Law),http://www.mcgeorge.edu/,3200 Fifth Ave.,Sacramento,CA,95817,Gordon D. Schaber Law Library,http://www.mcgeorge.edu/Library.htm,https://twitter.com/McGeorgeLawLib,none found,none found,http://www.mcgeorge.edu/Library/Meet_the_Staff.htm
California Western School of Law,http://www.cwsl.edu/,225 Cedar Street,San Diego,CA,92101,Library,https://www.cwsl.edu/student-life/library,https://twitter.com/CWSL_Library,http://blogs.cwsl.edu/blog/library/,none found,https://www.cwsl.edu/faculty-staff-and-campus-directories/faculty-and-staff-directory?department=Law%2BLibrary
Thomas Jefferson School of Law,http://www.tjsl.edu/,1155 Island Avenue,San Diego,CA,92101,Law Library,http://www.tjsl.edu/library,https://twitter.com/TJSL_Library,https://tjsllibrary.wordpress.com,https://www.facebook.com/tjsllibrary/,http://www.tjsl.edu/library/library-staff
University of San Diego,http://www.sandiego.edu/law/,5998 Alcalá Park,San Diego,CA,92110-2492,Pardee Legal Research Center,http://www.sandiego.edu/law/library/,none found,https://sites.sandiego.edu/lrc-orbit/,https://www.facebook.com/USD.LRC,http://www.sandiego.edu/law/library/directory/
Golden Gate University,http://www.ggu.edu/law,536 Mission Street,San Francisco,CA,94105,Law Library,http://law.ggu.edu/law/law-library,none found,none found,https://www.facebook.com/GGULawLibrary/,http://law.ggu.edu/law-library/about/
University of California - Hastings,http://www.uchastings.edu/,200 McAllister Street,San Francisco,CA,94102,Law Library,http://library.uchastings.edu/index.php,none found,https://hastingslawlibrary.wordpress.com/,none found,http://library.uchastings.edu/about/Staff.php
University of San Francisco,http://www.usfca.edu/law,2101 Fulton Street,San Francisco,CA,94117-1080 ,Dorraine Zief Law Library,http://www.usfca.edu/law/library/,https://twitter.com/usflawlib,http://ziefbrief.typepad.com,none found,https://www.usfca.edu/law/library/contact
Santa Clara University,http://www.scu.edu/law,500 El Camino Real,Santa Clara,CA,95053-0001,Edwin A. Heafey Law Library,http://law.scu.edu/library,https://twitter.com/heafeylibrary,none found,https://www.facebook.com/heafeylawlibrary/,http://law.scu.edu/library/staff
Stanford University,http://www.law.stanford.edu/,559 Nathan Abbott Way,Stanford,CA,94305-8610,Robert Crown Law Library,https://law.stanford.edu/robert-crown-law-library/,https://twitter.com/stanfordlawlib,http://liblog.law.stanford.edu/,https://www.facebook.com/Robert-Crown-Law-Library-at-Stanford-Law-School-22207600976/,https://law.stanford.edu/robert-crown-law-library/library-staff/
University of Colorado Law School,http://www.colorado.edu/law,2450 Kittredge Loop Dr.,Boulder,CO,80309-0402,William A. Wise Law Library,http://lawlibrary.colorado.edu/,https://twitter.com/wiselawlibrary,none found,https://www.facebook.com/culawlibrary/,http://lawlibrary.colorado.edu/about/library-directory
University of Denver (Sturm College of Law),http://www.law.du.edu/,2255 East Evans Avenue,Denver,CO,80208,Westminster Law Library,http://www.law.du.edu/index.php/library,none found,http://westminsterlawlibrary.blogspot.com/,none found,http://www.law.du.edu/index.php/directory/departments/library
Quinnipiac University,http://law.quinnipiac.edu,370 Bassett Road,Hamden,CT,06473,Lynne L. Pantalena Law Library,http://www.quinnipiac.edu/school-of-law/about-us/school-of-law-center/lynne-l-pantalena-law-library/,none found,none found,https://www.facebook.com/QUSLLawLibrary/,http://www.quinnipiac.edu/academics/colleges-schools-and-departments/school-of-law/about-us/school-of-law-center/lynne-l-pantalena-law-library/about-the-library/staff/
University of Connecticut,http://www.law.uconn.edu/,39 Elizabeth Street,Hartford,CT,06105-2290,Thomas J. Meskill Law Library,https://library.law.uconn.edu/,https://twitter.com/UConnLawLib,none found,none found,https://library.law.uconn.edu/about-contact-information/staff-directory
Yale Law School,http://www.law.yale.edu/,127 Wall Street,New Haven,CT,06511,Lillian Goldman Law Library,http://library.law.yale.edu/,https://twitter.com/yalelawlibrary,http://library.law.yale.edu/blogs,https://www.facebook.com/YaleLawLibrary/,http://library.law.yale.edu/people
American University Washington College of Law,http://www.wcl.american.edu/,4300 Nebraska Ave NW,Washington,DC,20016,Pence Law Library,http://library.wcl.american.edu/,https://twitter.com/pencelibrary,none found,https://www.facebook.com/pencelawlibrary/,https://www.wcl.american.edu/finance/directory/#library
Catholic University of America Columbus School of Law,http://law.edu/,3600 John McCormack Road NE,Washington,DC,20064,Judge Kathryn J. DuFour Law Library,http://www.law.edu/library/index.cfm,none found,none found,https://www.facebook.com/Catholic-University-Law-Library-20647542236/,http://libguides.law.cua.edu/information/directory
George Washington University,http://www.law.gwu.edu/,2000 H Street NW,Washington,DC,20052,Jacob Burns Law Library,https://www.law.gwu.edu/library,https://twitter.com/GWLawLibrary,none found,https://www.facebook.com/gwlawlibrary/,https://www.law.gwu.edu/contacts-library-staff-services
Georgetown University Law Center,http://www.law.georgetown.edu/,111 G. Street NW,Washington,DC,20001,Georgetown Law Library,http://www.law.georgetown.edu/library/,https://twitter.com/GtownLawLib,https://blogs.commons.georgetown.edu/dueprocess/,https://www.facebook.com/Georgetown-Law-Library-27636649993/,http://www.law.georgetown.edu/library/about/who-we-are/index.cfm
Howard University,http://www.law.howard.edu/,2929 Van Ness Street NW,Washington,DC,20008,Law Library,http://library.law.howard.edu/,https://twitter.com/HUSLLibrary,none found,https://www.facebook.com/Howard-University-Law-Library-74863848506/,http://library.law.howard.edu/staff.html
University of the District of Columbia (David A. Clarke School of Law),http://www.law.udc.edu/,4340 Connecticut Ave NW,Washington,DC,20008,Charles N. and Hilda H. M. Mason Law Library,http://library.law.udc.edu/,none found,none found,none found,http://library.law.udc.edu/library-info/staff-directory/
Widener University - Delaware Law School,http://delawarelaw.widener.edu,4601 Concord Pike ,Wilmington,DE,19803-0406,Legal Information Center,http://delawarelaw.widener.edu/current-students/library/,none found,http://blogs.lawlib.widener.edu/delaware/,https://www.facebook.com/DelawareLawSchoolLibrary/,http://delawarelaw.widener.edu/current-students/library/library-staff-directory/
University of Miami,http://www.law.miami.edu/,1311 Miller Drive,Coral Gables,FL,33146,Law Library,http://www.law.miami.edu/library/,https://twitter.com/UMiamiLawLib,none found,https://www.facebook.com/University-of-Miami-Law-Library-22899739340/,http://www.law.miami.edu/iml/library/law-library-staff
Nova Southeastern University (Shepard Broad College of Law),http://www.nsulaw.nova.edu/,3301 College,Fort Lauderdale,FL,33314-7796,Panza Maurer Law Library,https://www.law.nova.edu/library/index.html,https://twitter.com/nsulltc,none found,none found,https://www.law.nova.edu/library/staff.html
University of Florida (Levin College of Law),http://www.law.ufl.edu/,2500 SW 2nd Ave,Gainesville,FL,32611,Lawton Chiles Legal Information Center,http://www.law.ufl.edu/library,https://twitter.com/uflawlibrary,none found,https://www.facebook.com/pages/UF-Law-Library/134489093262908,https://www.law.ufl.edu/library/contact/staff-directory
Stetson University,http://www.law.stetson.edu/,1401 61st Street South,Gulfport,FL,33707,Dolly & Homer Hand Law Library,http://www.stetson.edu/law/library/,https://twitter.com/StetLawLibrary,none found,https://www.facebook.com/Stetson-University-College-of-Law-Dolly-Homer-Hand-Law-Library-176331229079362/,http://libguides.law.stetson.edu/c.php?g=194368&p=1279588
Florida Coastal School of Law,http://www.fcsl.edu/,8787 Baypine Road,Jacksonville,FL,32256,Library & Technology Center,http://www.fcsl.edu/ltc/,none found,http://fcsl.edu/blogs/library/,http://www.facebook.com/CoastalLTC,http://www.fcsl.edu/directory/library
Florida International University,http://law.fiu.edu/,11200 SW 8th Street,Miami,FL,33199,Law Library,https://law.fiu.edu/library/,none found,https://law.fiu.edu/news/library/,https://www.facebook.com/FIULawLibrary/,https://law.fiu.edu/library/about/contact/
St. Thomas University,http://www.stu.edu/,16401 NW 37th Ave,Miami Gardens,FL,33054,Alex A. Hanna Law Library,http://web.stu.edu/law/AlexHannaLibrary/tabid/668/Default.aspx,https://twitter.com/stulawlibrary,none found,https://www.facebook.com/stulawlibrary/,http://www.stu.edu/law/library/library-staff
Ave Maria School of Law,http://www.avemarialaw.edu/,1025 Commons Circle,Naples,FL,34119,Law Library,http://www.avemarialaw.edu/library,https://twitter.com/AMSL_Library,https://avelawlibrary.wordpress.com/,https://www.facebook.com/LEGALLAB,http://www.avemarialaw.edu/library/meet-us/
Barry University (Dwayne O. Andreas School of Law),http://www.barry.edu/law,6441 East Colonial Drive,Orlando,FL,32807,Euliano Law Library,http://www.barry.edu/law/future-students/library/,none found,https://barrylawlibrary.wordpress.com/,https://www.facebook.com/barrylawlibrary,http://www.barry.edu/law/future-students/library/library-staff.html
Florida A&M,http://law.famu.edu/,201 Beggs Ave,Orlando,FL,32801,Florida A&M University College of Law Library,http://library.famu.edu/c.php?g=276137&p=1842228,https://twitter.com/FAMULawLibrary,none found,https://www.facebook.com/FAMU-Law-Library-111289268905712/,http://library.famu.edu/c.php?g=276137&p=1841476
WMU Thomas M. Cooley (Tampa Bay),http://www.cooley.edu/,9445 Camden Field Pkwy,Riverview,FL,33578,Law Library,http://www.cooley.edu/library/contact.html,none found,none found,none found,http://www.cooley.edu/library/contact.html
Florida State University,http://www.law.fsu.edu/,425 W. Jefferson Street ,Tallahassee,FL,32306-1601,College of Law Research Center,http://archive.law.fsu.edu/library/index.html,https://twitter.com/FSULawRC,http://fsulawlibraryblog.typepad.com/,https://www.facebook.com/FSULawRC/,http://archive.law.fsu.edu/library/staffdirectory.html
University of Georgia,http://www.law.uga.edu/,225 Herty Drive,Athens,GA,30602-6012,Alexander Campbell King Law Library,http://www.law.uga.edu/law-library,https://twitter.com/ugalawlibrary,https://ugalawlibrary.wordpress.com/,https://www.facebook.com/UGALawLibrary/,http://www.law.uga.edu/law-library-faculty-staff
Atlanta's John Marshall Law School,http://www.johnmarshall.edu/,1422 W. PEACHTREE ST. NW,Atlanta,GA,30309,Michael J. Lynch Law Library,http://johnmarshall.beta.libguides.com/library,none found,none found,none found,http://johnmarshall.beta.libguides.com/library/staff
Emory University,http://www.law.emory.edu/,1301 Clifton Road NE,Atlanta,GA,30322-2770,Hugh F. MacMillan Law Library,http://library.law.emory.edu/index.html,none found,none found,none found,http://library.law.emory.edu/about-the-library/library-staff.html
Georgia State University,http://law.gsu.edu/,85 Park Place NE,Atlanta,GA,30303,Law Library,http://lawlibrary.gsu.edu/,https://twitter.com/gsulawlib,http://theblackacretimes.com,https://www.facebook.com/georgiastatelawlibrary/,http://lawlibrary.gsu.edu/department/law-library/
Mercer,https://law.mercer.edu/,1021 Georgia Ave,Macon,GA,31207,Furman Smith Law Library,https://law.mercer.edu/library/,none found,none found,none found,https://law.mercer.edu/library/information/
University of Hawaii (William S. Richardson School of Law),http://www.law.hawaii.edu/,2525 Dole Street,Honolulu,HI,96822-2328,Law Library,https://www.law.hawaii.edu/library,https://twitter.com/UHLawLibrary,https://uhlawlibrary.wordpress.com,https://www.facebook.com/Richardsonlawlibrary,https://www.law.hawaii.edu/library-faculty-and-staff
Drake University,http://www.law.drake.edu/,2621 Carpenter Avenue,Des Moines,IA,50311,Law Library,http://www.law.drake.edu/library/,https://twitter.com/drakelawlibrary,none found,none found,http://www.law.drake.edu/library/?pageID=libStaff
University of Iowa,http://www.law.uiowa.edu/,220 Boyd Law Building,Iowa City,IA,52242,Law Library,http://library.law.uiowa.edu/,https://twitter.com/UIowaLawLibrary,http://library.law.uiowa.edu/articles,https://www.facebook.com/UIowaLawLibrary,http://library.law.uiowa.edu/people
Concordia University,http://law.cu-portland.edu/,501 West Front Street,Boisie,ID,83702,George R. White Law Library,http://law.cu-portland.edu/library/databases,none found,none found,none found,http://law.cu-portland.edu/library/about/faculty-staff
University of Idaho,http://www.uidaho.edu/law/,514 W Jefferson St.,Boisie,ID,83702,Law Library,http://www.uidaho.edu/law/library,none found,none found,none found,none found
University of Idaho,http://www.uidaho.edu/law/,711 S. Rayburn Drive,Moscow,ID,83844,Law Library,http://www.uidaho.edu/law/library,none found,none found,https://www.facebook.com/UniversityOfIdahoCollegeOfLawLibrary/,http://www.uidaho.edu/law/library/information/staff
Southern Illinois University,http://www.law.siu.edu/,1150 Douglas Drive,Carbondale,IL,62901,Law Library,http://www.law.siu.edu/library/index.html,none found,none found,none found,http://www.law.siu.edu/lawlib/info/directory.htm
University of Illinois,http://www.law.uiuc.edu/,504 East Pennsylvania Avenue,Champaigne,IL,61820,"Albert E. Jenner, Jr. Library",https://www.law.illinois.edu/library/,https://twitter.com/uiuclawlib,none found,https://www.facebook.com/uiuclawlib/,https://www.law.illinois.edu/library/staff-directory
Depaul University,http://www.law.depaul.edu/,25 E. Jackson Blvd.,Chicago,IL,60604,Rinn Law Library,http://law.depaul.edu/library/Pages/default.aspx,none found,none found,https://www.facebook.com/dpurinnlawlibrary/,http://law.depaul.edu/library/about/Pages/staff-directory.aspx
IIT Chicago-Kent College of Law,http://www.kentlaw.edu/,565 West Adams Street,Chicago,IL,60661,Law Library,http://www.kentlaw.iit.edu/library,https://twitter.com/CKLawLibrary,http://blogs.kentlaw.iit.edu/library/,https://www.facebook.com/ChicagoKentLibrary/,http://www.kentlaw.iit.edu/library/library-staff
Loyola University Chicago,http://www.luc.edu/law/,25 E. Pearson Street,Chicago,IL,60611,Law Library,http://www.luc.edu/law/library/index.html,none found,http://www.luc.edu/law/library/homenews/,https://www.facebook.com/Loyola-University-Chicago-Law-Library-446936512055714/,http://www.luc.edu/law/library/about/staffdirectory/
Northwestern University,http://www.law.northwestern.edu/,357 East Chicago Avenue,Chicago,IL,60611,Pritzker Legal Research Center,http://www.law.northwestern.edu/library/,https://twitter.com/NULawLibrary,none found,https://www.facebook.com/NorthwesternLawLibrary/,http://www.law.northwestern.edu/library/aboutus/contactus/
The John Marshall Law School,http://www.jmls.edu/,315 S. Plymouth Court,Chicago,IL,60604,Louis L. Biro Law Library,http://library.jmls.edu/,https://twitter.com/JMLSLawLib,http://library.jmls.edu/blog/,https://www.facebook.com/jmlslibrary/,http://library.jmls.edu/staff.php
University of Chicago Law School,http://www.law.uchicago.edu/,1121 East 60th Street,Chicago,IL,60637,D'Angelo Law Library,http://www.lib.uchicago.edu/e/law/index.html,https://twitter.com/dangelolaw,http://news.lib.uchicago.edu/law/,https://www.facebook.com/dangelolawlibrary,http://www.lib.uchicago.edu/e/law/using/staff/
Northern Illinois University,http://law.niu.edu/,Swen Parson Hall,Dekalb,IL,60115,David C. Shapiro Memorial Law Library,http://law.niu.edu/law/academic/library/index.shtml,none found,http://law.niu.edu/law/academic/library/news/index.shtml,none found,http://law.niu.edu/law/academic/library/staff.shtml
Indiana University - Bloomington (Maurer School of Law),http://www.law.indiana.edu/,211 S. Indiana Avenue,Bloomington,IN,47405-7001,Jerome Hall Law Library,http://law.indiana.edu/lawlibrary/index.shtml,https://twitter.com/IUMaurerLawLib,http://law.indiana.edu/lawlibrary/blawg/index.php,https://www.facebook.com/JeromeHallLawLibrary/,http://law.indiana.edu/lawlibrary/about/staff.shtml
Indiana University-Indianapolis (Robert H. McKinney School of Law),http://www.mckinneylaw.iu.edu,530 W. New York St.,Indianapolis,IN,46202,Ruth Lilly Law Library,http://www.mckinneylaw.iu.edu/library/index.html,none found,none found,none found,http://www.mckinneylaw.iu.edu/library/about-the-library/personnel.html
University of Notre Dame,http://www.nd.edu/~ndlaw/,1100 Eck Hall of Law,Notre Dame,IN,46556,Kresge Law Library,http://law.nd.edu/library/,https://twitter.com/NDLawLibrary,none found,none found,http://law.nd.edu/library/library-information/library-staff-and-departments/
Valparaiso University,http://www.valpo.edu/law,656 South Greenwich Street,Valparaiso,IN,46383,Law Library,http://www.valpo.edu/law/current-students/law-library,none found,http://www.valpolawlibrary.blogspot.com,none found,http://www.valpo.edu/law/current-studentsc-law-libraryc-quick-linksc-law-library-faculty-and-staff
University of Kansas,http://www.law.ku.edu/,1535 W. 15th Street,Lawrence,KS,66045,Wheat Law Library,http://law.ku.edu/wheat-law-library,none found,none found,none found,https://law.drupal.ku.edu/sites/law.drupal.ku.edu/files/docs/resources/library/Library%20Guide%202015-16.pdf
Washburn University,http://washburnlaw.edu/,1700 SW College Avenue,Topkea,KS,66621,Law Library,http://washburnlaw.edu/library/index.html,none found,http://www.washlaw.edu,none found,http://washburnlaw.edu/profiles/librarystaff/index.html
Northern Kentucky University (Chase College of Law),http://www.nku.edu/~chase,Nunn Drive,Highland Heights,KY,41099,Law Library,http://chaselaw.nku.edu/library.html,none found,none found,https://www.facebook.com/ChaseLawLibrary/,http://chaselaw.nku.edu/library/contact.html
University of Kentucky,http://www.uky.edu/Law/,620 S. Limestone ,Lexington,KY,40506-0048 ,Law Library,http://library.law.uky.edu/home,none found,http://ukylawlibrary.blogspot.com/,https://www.facebook.com/uklawlibrary/,http://law.uky.edu/directory/library
University of Louisville,http://www.law.louisville.edu/,2301 South Third Street,Louisville,KY,40208,Law Library,http://louisville.edu/law/library,new books,none found,https://www.facebook.com/uofllawlib,http://louisville.edu/law/library/about
Louisiana State University,http://www.law.lsu.edu/,1 E. Campus Dr.,Baton Rouge,LA,70803,Law Library,http://www.law.lsu.edu/library/,https://twitter.com/lsulawlibrary,none found,https://www.facebook.com/lsulawlibrary/,http://www.law.lsu.edu/library/contact-us/
Southern University,http://www.sulc.edu/,2 Roosevelt Steptoe Street,Baton Rouge,LA,70813,Oliver B. Spellman Law Library,http://www.sulc.edu/current-students/library/,none found,none found,none found,http://www.sulc.edu/directory/?department=Library
Loyola University New Orleans,http://www.loyno.edu/law,526 Pine Street,New Orleans,LA,70118,Law Library,http://law.loyno.edu/library,none found,http://lunolaw.blogspot.com/,https://www.facebook.com/Loyola-University-New-Orleans-Law-Library-136448459761985/,http://law.loyno.edu/library/bios
Tulane University Law School,http://www.law.tulane.edu/,6329 Freret Street ,New Orleans,LA,70118,Law Library,http://library.law.tulane.edu/screens/index.html,https://twitter.com/TULLNathanHale,none found,https://www.facebook.com/Tulane-Law-Library-258158010875720/,http://library.law.tulane.edu/screens/stafflisting.html
Boston University,http://web.bu.edu/LAW/,765 Commonwealth Ave,Boston,MA,02215,Fineman & Pappas Law Libraries,http://www.bu.edu/lawlibrary/,https://twitter.com/BULawLib,http://www.bulawinteractive.org/libraryblog/,https://www.facebook.com/bulawlibrary/,http://www.bu.edu/lawlibrary/about/staff.html
New England Law,http://www.nesl.edu/,154 Stuart Street ,Boston,MA,02116,Law Library,http://www.nesl.edu/library/,https://twitter.com/Nelawlibrary,none found,https://www.facebook.com/NElawlibrary/,http://www.nesl.edu/library/staff.cfm
Northeastern University,http://www.slaw.neu.edu/,416 Huntington Avenue,Boston,MA,02115,Law Library,http://www.northeastern.edu/law/library/index.html,none found,none found,none found,http://www.northeastern.edu/law/library/staff.html
Suffolk University,http://www.law.suffolk.edu/,120 Tremont Street,Boston,MA,02108,John Joseph Moakley Law Library,http://www.suffolk.edu/law/library.php,none found,http://suffolklawlibrary.blogspot.com/index.html,https://www.facebook.com/Suffolk-University-Moakley-Law-Library-129759473704449/,http://www.suffolk.edu/law/library/19771.php
Harvard University,http://www.law.harvard.edu/,1545 Massachusetts Avenue,Cambridge,MA,02138-2903,Harvard Law School Library,http://hls.harvard.edu/library/,https://twitter.com/hlslib,http://etseq.law.harvard.edu/,https://www.facebook.com/hlslibrary/,http://hls.harvard.edu/library/about-the-library/staff-directory/
University of Massachusetts - Dartmouth,http://www.umassd.edu/law/,333 Faunce Corner Road,Dartmouth,MA,02747-1252,Law Library,http://www.umassd.edu/law/library/,none found,none found,https://www.facebook.com/umasslawlibrary/,http://www.umassd.edu/law/library/lawlibrarystaff/
Boston College,http://www.bc.edu/schools/law/,885 Centre St.,Newton Centre,MA,02459,Law Library,http://www.bc.edu/schools/law/library.html,https://twitter.com/BCLawLib,http://bclegaleagle.blogspot.com,https://www.facebook.com/Boston-College-Law-Library-13803164549/,http://www.bc.edu/schools/law/library/about/staff.html
Western New England University,http://www1.law.wne.edu/,1215 Wilbraham Road,Springfield,MA,01119,Law Library,http://www1.law.wne.edu/library/,https://twitter.com/WNElawlibrary,http://wnelawlibrary.blogspot.com,https://www.facebook.com/wnelawlibrary/,http://www1.law.wne.edu/library/index.cfm?selection=doc.521
University of Baltimore,http://law.ubalt.edu/index.cfm,1401 N. Charles St.,Baltimore,MD,21201,School of Law Library,http://law.ubalt.edu/library/,https://twitter.com/ubaltlawlibrary,https://ublawlibrary.wordpress.com,https://www.facebook.com/University-of-Baltimore-Law-Library-18697948537/,http://law.ubalt.edu/library/information/staff/index.cfm
University of Maryland (Francis King Carey School of Law),http://www.law.umaryland.edu/,500 W. Baltimore Street,Baltimore,MD,21201-1786,Thurgood Marshall Law Library,http://www.law.umaryland.edu/marshall/,https://twitter.com/UMDLawLibrary,http://umlaw.typepad.com/tmll_news/,https://www.facebook.com/Thurgood-Marshall-Law-Library-126814084040772/,http://www.law.umaryland.edu/marshall/aboutlibrary/contact.html
University of Maine,http://mainelaw.maine.edu/,246 Deering Avenue,Portland,ME,04102,Donald L. Garbrecht Law Library,http://mainelaw.maine.edu/library/,https://twitter.com/UMELawLibrary,http://umainelawlib.blogspot.com/,https://www.facebook.com/Donald-L-Garbrecht-Law-Library-University-of-Maine-School-of-Law-22057463866/,http://mainelaw.maine.edu/library/about-library/contact-us/
University of Michigan,http://www.law.umich.edu/,801 Monroe Street,Ann Arbor,MI,48109-1210,Law Library,http://www.law.umich.edu/library/info/Pages/default.aspx,none found,none found,none found,http://www.law.umich.edu/library/info/contact/Pages/default.aspx
WMU Thomas M. Cooley (Auburn Hills),http://www.cooley.edu/,2630 Featherstone ,Auburn Hills,MI,48326,Law Library,http://www.cooley.edu/library/contact.html,none found,none found,none found,http://www.cooley.edu/library/contact.html
University of Detroit Mercy,http://www.law.udmercy.edu/,651 East Jefferson Avenue,Detroit,MI,48226,Kresge Law Library,http://www.law.udmercy.edu/index.php/law-library/law-library-1,https://twitter.com/udmlawlib,none found,https://www.facebook.com/udmlawlib/,http://www.law.udmercy.edu/index.php/law-library/about-us/staff
Wayne State University,http://www.law.wayne.edu/,474 Gilmour Mall,Detroit,MI,48202,Arthur Neef Law Library,https://library.wayne.edu/neef/,none found,none found,https://www.facebook.com/waynestateneeflawlibrary/,https://library.wayne.edu/neef/
Michigan State University,http://www.law.msu.edu/,648 N. Shaw Lane,East Lansing,MI,48824-1300,John F. Schaefer Law Library,http://www.law.msu.edu/library/index.html,none found,none found,https://www.facebook.com/John-F-Schaefer-Law-Library-MSU-College-of-Law-111980292201093/,http://www.law.msu.edu/directory.php?view=dept
WMU Thomas M. Cooley (Grand Rapids),http://www.cooley.edu/,"111 Commerce Avenue, SW",Grand Rapids,MI,49503,Law Library,http://www.cooley.edu/library/contact.html,none found,none found,none found,http://www.cooley.edu/library/contact.html
WMU Thomas M. Cooley (Lansing),http://www.cooley.edu/,300 S. Capitol Avenue,Lansing,MI,48933,Law Library,http://www.cooley.edu/library/contact.html,none found,none found,none found,http://www.cooley.edu/library/contact.html
University of Minnesota,http://www.law.umn.edu/,229 19th Avenue South,Minneapolis,MN,55455,Law Library,http://library.law.umn.edu/,none found,http://umnlawlib.blogspot.com,none found,http://library.law.umn.edu/geninformation.html#directory
University of St. Thomas,http://www.stthomas.edu/law/,1000 LaSalle Avenue,Minneapolis,MN,55403,Schoenecker Law Library,http://www.stthomas.edu/law/studentsupport/libraryit/,none found,none found,none found,http://www.stthomas.edu/law/studentsupport/libraryit/aboutthelibrary/librarystaff/
Mitchell Hamline School of Law,http://www.wmitchell.edu/,875 Summit Avenue,Saint Paul,MN,55105,Warren E. Burger Library,http://mitchellhamline.edu/library/,https://twitter.com/BurgerLibrary,none found,https://www.facebook.com/BurgerLibrary/,none found
University of Missouri,http://www.law.missouri.edu/,122 Hulston Hall ,Columbia,MO,65211 ,Law Library,http://www.law.missouri.edu/library/,https://twitter.com/MULawLibrary,none found,https://www.facebook.com/MizzouLawLibrary,http://law.missouri.edu/about/category/library/
University of Missouri - Kansas City,http://www.law.umkc.edu/,500 E. 52nd Street,Kansas City,MO,64110,Leon E. Bloch Law Library,https://law.umkc.edu/library/,none found,none found,https://www.facebook.com/umkclawlibrary/,https://law.umkc.edu/directory/staff-directory/?cn-s=&cn-cat=43&cn-pg=1&cn-pg=1
Saint Louis University,http://law.slu.edu/,100 North Tucker Boulevard,St. Louis,MO,63101,Vincent C. Immel Law Library,http://law.slu.edu/library,https://twitter.com/slulawlibrary,none found,https://www.facebook.com/SLU-Law-Library-128831620502018/,http://law.slu.edu/library/faculty-staff
Washington University in St. Louis,http://law.wustl.edu/,One Brookings Drive,St. Louis,MO,63130,Law Library,http://law.wustl.edu/library/index.aspx,none found,none found,none found,http://law.wustl.edu/library/pages.aspx?id=1467
Mississippi College,http://law.mc.edu/,151 East Griffith Street,Jackson,MS,39201,Law Library,http://law.mc.edu/law-library/,none found,http://mclawlib.blogspot.com/,https://www.facebook.com/Mississippi-College-School-of-Law-Library-18399003066/,http://law.mc.edu/law-library/faculty-and-staff/
University of Mississippi,http://www.law.olemiss.edu/,481 Chucky Mullins Drive,University,MS,38677-1848,Grisham Law Library,http://library.law.olemiss.edu/,https://twitter.com/OleMissLawbrary,none found,https://www.facebook.com/University-of-Mississippi-Law-Library-25438732114/,http://library.law.olemiss.edu/law-library-staff-directory
University of Montana,http://www.umt.edu/law,32 Campus Drive,Missoula,MT,59812,William J. Jameson Law Library,http://www.umt.edu/law/library/default.php,none found,https://jamesonlawlibrary.wordpress.com,none found,http://www.umt.edu/law/library/about-us.php
University of North Carolina,http://www.law.unc.edu/,160 Ridge Road,Chapel Hill,NC,27599-3385,Katherine R. Everett Law Library,http://library.law.unc.edu/,https://twitter.com/UNCLawLibrary,http://blogs.law.unc.edu/library/,https://www.facebook.com/UNCLawLibrary/,https://library.law.unc.edu/about/directory/
Charlotte School of Law,http://www.charlottelaw.edu/,201 S. College St,Charlotte,NC,28244,Law Library,http://www.charlottelaw.edu/academics/library/,none found,http://charlotteschooloflawblog.com/,none found,http://cslguides.charlottelaw.edu/content.php?pid=234005&sid=5083781
Duke University,http://www.law.duke.edu/,210 Science Drive,Durham,NC,27708-0361,J. Michael Goodson Law Library,https://www.law.duke.edu/lib/,https://twitter.com/DukeLawLibrary,http://dukelawref.blogspot.com/,https://www.facebook.com/dukelawlibrary,https://www.law.duke.edu/lib/staffdirectory/
North Carolina Central University,http://law.nccu.edu/,640 Nelson Street,Durham,NC,27707,Law Library,http://law.nccu.edu/library/,https://twitter.com/ncculawlibrary,none found,https://www.facebook.com/NCCULawLibrary/,http://law.nccu.edu/library/about/staff/
Elon University,http://www.elon.edu/e-web/law,201 North Greene Street,Greensboro,NC,27401,Law Library,http://www.elon.edu/e-web/law/library/default.xhtml,none found,http://elonlawlibrary.blogspot.com/,none found,https://www.elon.edu/e/law/library/contact-us.html
Campbell University (Norman Adrian Wiggins School of Law),http://law.campbell.edu/,225 Hillsborough Street,Raleigh,NC,27603,Law Library,http://law.campbell.edu/page.cfm?id=6&n=law-library,none found,none found,none found,http://law-campbell.libguides.com/staff
Wake Forest University,http://www.law.wfu.edu/,1834 Wake Forest Road,Winston-Salem,NC,27109,Professional Center Library,http://library.law.wfu.edu/,https://twitter.com/wfupcl,http://library.law.wfu.edu/blog/,https://www.facebook.com/WFUPCL/,http://library.law.wfu.edu/about/our-staff/
University of North Dakota,http://www.law.und.nodak.edu/,2968 2nd Avenue North,Grand Forks,ND,58202-9004,Thormodsgard Law Library,http://law.und.edu/library/,https://twitter.com/undlawlibrary,none found,https://www.facebook.com/NDLawLibrary/,http://libguides.law.und.edu/c.php?g=229524&p=1522383
University of Nebraska - Lincoln,http://law.unl.edu/,1875 North 42nd Street,Lincoln,NE,68583,Marvin & Virginia Schmid Law Library,http://law.unl.edu/library/,https://twitter.com/schmidlibrary,https://schmidlawlibrary.wordpress.com,https://www.facebook.com/SchmidLawLibrary/,none found
Creighton University,http://law.creighton.edu/,2133 Cass Street,Omaha,NE,68178,Klutznick Law Library / McGrath North Mullin & Kratz Legal Research Center,https://law.creighton.edu/current-students/law-library,https://twitter.com/CreightonLawLib,http://blogs.creighton.edu/lawlibrarynotes/,none found,https://law.creighton.edu/current-students/law-library/administration-and-staff
University of New Hampshire,http://law.unh.edu/,2 White Street,Concord,NH,03301,Law Library,http://library.law.unh.edu/,none found,http://library.law.unh.edu/blog,https://www.facebook.com/UNH-Law-Library-101076786641536/,http://library.law.unh.edu/Contact
Rutgers University - Camden,http://www-camlaw.rutgers.edu/,217 NORTH FIFTH STREET,Camden,NJ,08102,Law Library,http://camlaw.rutgers.edu/law-library,https://twitter.com/RULawLibr,https://camdenlaw.wordpress.com,http://www.facebook.com/rutgers.law.library.camden,http://camlaw.rutgers.edu/librarians-staff
Rutgers University - Newark,http://law.newark.rutgers.edu,123 Washington Street,Newark,NJ,07102,Law Library,http://law-library.rutgers.edu/index.php,https://twitter.com/RULawLib,none found,https://www.facebook.com/rutgers.law.library.newark/,http://law-library.rutgers.edu/staff
Seton Hall,http://law.shu.edu/,1109 Raymond Boulevard,Newark,NJ,07102,Rodino Law Library  ,http://law.shu.edu/library/index.cfm,https://twitter.com/SHLawLibrary,none found,https://www.facebook.com/SHLawLibrary,http://law.shu.edu/faculty/staff/department_listing.cfm?id=Library
University of New Mexico,http://lawschool.unm.edu/,1117 Stanford NE,Albuquerque,NM,87131-0001,Law Library,http://lawlibrary.unm.edu/,none found,none found,https://www.facebook.com/University-of-New-Mexico-School-of-Law-Library-13891887822/,http://lawlibrary.unm.edu/about.php
University of Nevada - Las Vegas,http://law.unlv.edu/,4505 S. Maryland Parkway,Las Vegas,NV,89154-1080,Wiener-Rogers Law Library,http://law.unlv.edu/law-library,none found,none found,none found,http://law.unlv.edu/academics/law-library/about/staff-directory
Albany Law School,http://www.albanylaw.edu/,80 New Scotland Ave,Albany,NY,12208-3434,Schaffer Law Library,http://www.albanylaw.edu/library/Pages/default.aspx,https://twitter.com/AlbanyLawLib,https://albanylawlibrary.wordpress.com/,https://www.facebook.com/Albany-Law-School-Schaffer-Law-Library-207444285953834/,http://www.albanylaw.edu/library/Pages/default.aspx
Brooklyn Law School,http://www.brooklaw.edu/,250 Joralemon Street ,Brooklyn,NY,11201,Library,https://www.brooklaw.edu/library,https://twitter.com/BLSLibrary,http://www.blslibrary.com,https://www.facebook.com/BLSLibrary/,https://www.brooklaw.edu/intellectuallife/library/accessservicesandstaff/biosdepartmentssupportstaff/ourlibrarians?
SUNY Buffalo,http://www.buffalo.edu/law/,John Lord O'Brian Hall,Buffalo,NY,14203-2887,Charles B. Sears Law Library,http://law.lib.buffalo.edu/,https://twitter.com/UBLawLib,http://libweb.lib.buffalo.edu/blog/law/,https://www.facebook.com/ublawlib,http://law.lib.buffalo.edu/about/staff.asp
Touro College Jacob D. Fuchsberg Law Center,http://www.tourolaw.edu/,255 Eastview Drive,Central Islip,NY,11722-4539,Gould Law Library,http://www.tourolaw.edu/LawLibrary/,https://twitter.com/TouroLawLibrary,none found,https://www.facebook.com/GouldLawLibrary/,http://www.tourolaw.edu/LawLibrary/?pageid=243
Hofstra University,http://law.hofstra.edu,122 Hofstra University,Hempstead,NY,11549,Law Library,http://law.hofstra.edu/library,https://twitter.com/HofstraLawLib,http://lawblogs.hofstra.edu/lawlibrary/,https://www.facebook.com/Law-Library-Hofstra-University-School-of-Law-34975619288/,http://law.hofstra.edu/library/general/staff/index.html
Cornell University,http://www.lawschool.cornell.edu/,Myron Taylor Hall,Ithaca,NY,14853,Law Library,https://law.library.cornell.edu/,https://twitter.com/Cornell_Lawlib,none found,https://www.facebook.com/pages/Cornell-Law-Library/181054331977428,https://law.library.cornell.edu/about/contacts
City University Of New York,http://www.law.cuny.edu/,2 Court Square,Long Island City,NY,11101-4356 ,Law Library,http://www.law.cuny.edu/library.html,none found,none found,https://www.facebook.com/cunylawlibrary,http://www.law.cuny.edu/library/staff.html
Columbia University,https://www.law.columbia.edu/,435 W 116th St,New York,NY,10027,Arthur W. Diamond Law Library,http://web.law.columbia.edu/library,none found,none found,none found,http://web.law.columbia.edu/library/about/contact
Fordham University,http://law.fordham.edu,150 W 62nd St,New York,NY,10023,T.J. & Nancy Maloney Law School Library,http://lawlib1.lawnet.fordham.edu/,https://twitter.com/fordhamlawlib,none found,https://www.facebook.com/fordhamlawlibrary,http://lawlib1.lawnet.fordham.edu/libinfo/contact_us.html
New York Law School,http://www.nyls.edu/,185 West Broadway,New York,NY,10013-2921,Mendik Library,http://www.nyls.edu/library/,none found,http://www.mendikmatters.org/,https://www.facebook.com/mendiklib,http://www.nyls.edu/library/library-information/contact_us/
New York University,http://www.law.nyu.edu/,40 Washington Square South,New York,NY,10012,Law Library,http://www.law.nyu.edu/library,none found,none found,none found,http://www.law.nyu.edu/library/generalinformation/personneldirectory/
Yeshiva University Cardozo School of Law,http://www.cardozo.yu.edu/,55 Fifth Avenue,New York,NY,10003,Dr. Lillian & Dr. Rebecca Chutick Law Library,http://www.cardozo.yu.edu/library,https://twitter.com/cardozolawlib,http://www.cardozo.yu.edu/library-technology/brief-library-blog,https://www.facebook.com/CardozoLawLibrary/,http://www.cardozo.yu.edu/directory/offices/1794
St. John's University,http://www.stjohns.edu/law,8000 Utopia Parkway,Queens,NY,11439,Rittenberg Law Library,http://lawlibrary.stjohns.edu/,https://twitter.com/@SJU_Rittenbird,none found,none found,http://lawlibrary.stjohns.edu/screens/idx_libr_info.html
Syracuse University,http://www.law.syr.edu/,E.I. White Hall,Syracuse,NY,13244-1030,Law Library,http://www.law.syr.edu/law-library/,none found,none found,none found,http://law.syr.edu/law-library/about-the-library/library-staff/
Pace University,http://www.law.pace.edu/,78 North Broadway,White Plains,NY,10603,Law Library,http://www.law.pace.edu/library,https://twitter.com/pacelawlibrary,http://library.blogs.law.pace.edu/,https://www.facebook.com/pacelawlibrary/,http://www.law.pace.edu/library-staff
Ohio Northern University,http://www.law.onu.edu/,525 South Main Street,Ada,OH,45810,Taggart Law Library,http://law.onu.edu/library,none found,none found,https://www.facebook.com/Taggart-Law-Library-at-Ohio-Northern-University-Pettit-College-of-Law-148095708589432/,http://law.onu.edu/library/library_information/contact
University of Akron,https://www.uakron.edu/law/,150 University Ave.,Akron,OH,44325-0002,University of Akron Law Library,https://www.uakron.edu/law/about-us/law-library.dot,none found,none found,none found,http://law.uakron.libguides.com/librarystaff
University of Cincinnati College of Law,http://www.law.uc.edu/,2540 Clifton Ave,Cincinnati,OH,45219,Robert S. Marx Law Library,http://www.law.uc.edu/library,https://twitter.com/UCLawLib,https://lawblogs.uc.edu/marxblog/,https://www.facebook.com/UCLawLibrary/,http://www.law.uc.edu/library/library-directory
Case Western Reserve University School of Law,http://law.case.edu/,11075 East Blvd,Cleveland,OH,44106,Judge Ben C. Green Law Library,http://lawlibrary.case.edu/,https://twitter.com/CWRULawLibrary,http://lawlibrary.case.edu/blog/,https://www.facebook.com/caselawlibrary/,http://lawlibrary.case.edu/about/staff-list/
Cleveland-Marshall College of Law,http://www.law.csuohio.edu/,2121 Euclid Avenue,Cleveland,OH,44115,Cleveland-Marshall Law Library,https://www.law.csuohio.edu/lawlibrary,https://twitter.com/CMLawLibrary,http://cmlawlibraryblog.classcaster.net,https://www.facebook.com/Cleveland-Marshall-College-of-Law-Library-22382136237/,https://www.law.csuohio.edu/lawlibrary/staffdirectory
Capital University,http://www.law.capital.edu/,303 East Broad Street,Columbus,OH,43215,Capital University Law School Library,http://law.capital.edu/Law_Library/,none found,none found,none found,http://law.capital.edu/Law_Library_Contact_Info/
Ohio State University,http://moritzlaw.osu.edu/,55 West 12th Avenue,Columbus,OH,43210-1391,Mortiz Law Library,http://moritzlaw.osu.edu/lib/,https://twitter.com/MoritzLawLib,http://moritzlegalinformation.blogspot.com,https://www.facebook.com/MoritzLawLibrary/,http://moritzlaw.osu.edu/about/about-moritz/departmental-directory/#57
University of Dayton,http://law.udayton.edu/,300 College Park Ave.,Dayton,OH,45469-2780,Zimmerman Law Library,https://www.udayton.edu/law/library/index.php,none found,http://notabibliothecae.blogspot.com/,https://www.facebook.com/ZimmermanLawLibrary/,https://www.udayton.edu/law/library/staff.php
University of Toledo,http://law.utoledo.edu/,1825 West Rocket Drive,Toledo,OH,43606-3390,LaValley Law Library,http://www.utoledo.edu/law/library/index.html,none found,none found,https://www.facebook.com/LaValleyLawLibrary/,http://www.utoledo.edu/law/library/staff.html
University of Oklahoma,http://www.law.ou.edu/,300 Timberdell Rd.,Norman,OK,73019,Donald E. Pray Law Library,http://www.law.ou.edu/content/about,none found,none found,https://www.facebook.com/OULawLibrary/,http://www.law.ou.edu/content/about
Oklahoma City University,http://www.okcu.edu/law,2501 N. Blackwelder Ave.,Oklahoma City,OK,73106,Chickasaw Nation Law Library,http://libguides.okcu.edu/lawlibraryhome,https://twitter.com/OCULAW,none found,none found,http://libguides.okcu.edu/c.php?g=225058&p=2104301
University of Tulsa,http://www.utulsa.edu/law/,3120 E. 4th Pl.,Tulsa,OK,74103,Mabee Legal Information Center,http://law.utulsa.edu/mabee-legal-info-center/,none found,none found,https://www.facebook.com/themlic/,https://law.utulsa.edu/mabee-legal-info-center/staff/
University of Oregon,http://www.law.uoregon.edu/,1515 Agate Street,Eugene,OR,97403,John E. Jaqua Law Library,http://library.uoregon.edu/law,none found,none found,none found,http://library.uoregon.edu/law/aboutus.html
Lewis And Clark,http://law.lclark.edu,10015 SW Terwilliger Blvd,Portland,OR,97219-7768,Paul L. Boley Law Library,http://law.lclark.edu/library/,https://twitter.com/lawlib,https://law.lclark.edu/live/rss/news/header/Library%20Updates/group/Law%3A%20Boley%20Law%20Library/exclude_tag/spotlight,https://www.facebook.com/BoleyLawLibrary/,http://lawlibguides.lclark.edu/about/Staff
Willamette University,http://www.willamette.edu/wucl,245 Winter Street SE,Salem,OR,97301,J.W. Long Law Library,http://www.willamette.edu/law/longlib/index.html,none found,none found,none found,http://www.willamette.edu/law/longlib/about/library_staff/index.html
Pennsylvania State University - Dickinson Law,https://dickinsonlaw.psu.edu/,150 South College Street,Carlisle,PA,17013,"H. Laddie Montague, Jr. Law Library",https://dickinsonlaw.psu.edu/library,none found,http://sites.psu.edu/keepingitbrief/,none found,https://dickinsonlaw.psu.edu/library/library-faculty-and-staff
Widener University - Commonwealth Law School,http://harrisburglaw.widener.edu,3800 Vartan Way,Harrisburg,PA,17106-9380,Law Library,http://commonwealthlaw.widener.edu/current-students/law-library/,none found,http://blogs.lawlib.widener.edu/harrisburg/,https://www.facebook.com/WidenerLawCommonwealthLawLibrary/,http://commonwealthlaw.widener.edu/current-students/law-library/contact-us/
Drexel University,http://www.drexel.edu/law/,3320 Market Street,Philadelphia,PA,19104,Legal Research Center,http://drexel.edu/law/library/,none found,none found,https://www.facebook.com/DULawLRC/,http://deptapp08.drexel.edu/law/library/staff.htm
Temple University,http://www.law.temple.edu/,1719 North Broad Street,Philadelphia,PA,19122,Law Library,http://www.law.temple.edu/resources/library/,https://twitter.com/TempleLawLib,none found,https://www.facebook.com/TempleLawLibrary/,http://www.law.temple.edu/resources/library/about-the-law-library/
University of Pennsylvania,http://www.law.upenn.edu/,3501 Sansom Street,Philadelphia,PA,19104 ,Biddle Law Library,https://www.law.upenn.edu/library/,https://twitter.com/biddlelibrary,https://www.law.upenn.edu/library/blog/,https://www.facebook.com/biddlelawlibrary,https://www.law.upenn.edu/library/about/staff.php
Duquesne University,http://www.law.duq.edu/,900 Locust Street,Pittsburgh,PA,15282 ,Center for Legal Information,http://www.law.duq.edu/libraries/law-library-center-legal-information,none found,none found,https://www.facebook.com/Duquesne-Center-for-Legal-Information-398518643533132/,http://www.law.duq.edu/libraries/law-library-dcli/staff-directory
University of Pittsburgh,http://www.law.pitt.edu/,3900 Forbes Avenue,Pittsburgh,PA,15260,Barco Law Library,http://www.law.pitt.edu/library,https://twitter.com/BarcoLawLibrary,http://www.barcorefblog.blogspot.com,https://www.facebook.com/BarcoLawLibrary/,http://www.law.pitt.edu/library/contact
Pennsylvania State University - Penn State Law,http://www.pennstatelaw.psu.edu/,214 Lewis Katz Building,University Park,PA,16802,"H. Laddie Montague, Jr. Law Library",http://pennstatelaw.psu.edu/library,none found,none found,none found,http://pennstatelaw.psu.edu/library/staff
Villanova University,http://www.law.villanova.edu/,299 North Spring Mill Road,Villanova,PA,19085,Law Library,http://www1.villanova.edu/content/villanova/law/library.html,none found,https://villanovalawlibrary.wordpress.com,none found,http://www1.villanova.edu/villanova/law/library/staffdir.html
Inter-American,http://www.derecho.inter.edu/,Calle Federico Costa #170,Hato Rey,PR,00936-8351,none found,http://www.derecho.inter.edu/inter/node/67,none found,none found,none found,http://www.derecho.inter.edu/inter/node/70
Pontifical Catholic University of Puerto Rico,http://www.pucpr.edu/,2250 Ave Las Americas,Ponce,PR,00717-0655,none found,none found,none found,none found,none found,none found
Universidad de Puerto Rico,http://www.law.upr.edu,,San Juan,PR,00931-3310,Biblioteca de Derecho,http://www.derechoupr.com/,https://twitter.com/BibliotecaDerec,none found,https://www.facebook.com/uprlawlib/,none found
Roger Williams University,http://law.rwu.edu/,Ten Metacom Avenue,Bristol,RI,02809,Law Library,http://law.rwu.edu/library,https://twitter.com/RWULawLibrary,http://law.rwu.edu/blogs/23,https://www.facebook.com/RWULawLibrary/,http://law.rwu.edu/library/about-library/staff
Charleston School of Law,http://www.charlestonlaw.org/,81 Mary Street,Charleston,SC,29403-6249,Sol Blatt Jr. Law Library,http://www.charlestonlaw.edu/Library.aspx,none found,none found,https://www.facebook.com/CharlestonSchoolOfLaw.SolBlattJr.Library,http://www.charlestonlaw.edu/Library/Welcome-from-the-Staff/Welcome-from-the-Staff.aspx
University of South Carolina,http://www.law.sc.edu/,701 Main Street,Columbia,SC,29208,Coleman Karesh Law Library,http://www.law.sc.edu/library/,none found,http://blawg.law.sc.edu,https://www.facebook.com/Coleman-Karesh-Law-Library-151086791721935/,http://www.law.sc.edu/library/about/library-directory.shtml
University of South Dakota,http://www.usd.edu/law,414 E. Clark St. ,Vermillion,SD,57069 ,McKusick Law Library,http://www.usd.edu/law/law-library,none found,http://prairielb.blogspot.com,none found,http://libguides.law.usd.edu/content.php?pid=401056
Lincoln Memorial University (Duncan School of Law),http://law.lmunet.edu/,601 W Summit Hill Dr,Knoxville,TN,37902,Law Library,http://library.lmunet.edu/lawlib/Home,https://twitter.com/refdsol,none found,none found,http://library.lmunet.edu/lawlib/Home
University of Tennessee,http://www.law.utk.edu/,1505 W. Cumberland Avenue,Knoxville,TN,37996-1810,Joel A. Katz Law Library,http://law.utk.edu/library/,none found,none found,https://www.facebook.com/UTK.Law.Library/,http://law.utk.edu/library/directory/
University of Memphis,http://www.memphis.edu/law/,1 North Front Street,Memphis,TN,38103-2189,Law Library,http://www.memphis.edu/law/library/,none found,none found,none found,http://www.memphis.edu/law/faculty-staff/library-staff.php
Belmont University,http://www.belmont.edu/law/,1900 Belmont Boulevard,Nashville,TN,37212-3757,Belmont University College of Law Library,http://www.belmont.edu/law/library/index.html,none found,none found,none found,http://www.belmont.edu/law/library/staff.html
Vanderbilt University,http://www.vanderbilt.edu/Law/,131 21st Ave S,Nashville,TN,37203,Alyne Queener Massey Law Library,http://www.library.vanderbilt.edu/law/,none found,http://newsonline.library.vanderbilt.edu/category/law-library/,none found,http://www.library.vanderbilt.edu/law/ask-librarian.php
University of Texas,http://www.utexas.edu/law/,727 East Dean Keeton St.,Austin,TX,78705,Tarlton Law Library,http://tarlton.law.utexas.edu/,https://twitter.com/TarltonLawLib,http://sites.utexas.edu/Tarlton-library-news/,https://www.facebook.com/TarltonLawLibrary/,https://tarlton.law.utexas.edu/about-the-library/directory
Southern Methodist University,http://www.law.smu.edu/,6550 Hillcrest Avenue,Dallas,TX,75275-0354,Underwood Law Library,http://library.law.smu.edu/,none found,none found,none found,http://library.law.smu.edu/About-Us/Staff
Texas A&M,http://law.tamu.edu/,1515 Commerce Street,Fort Worth,TX,76102-6509,Dee J. Kelly Law Library,http://law.tamu.edu/faculty-staff/library/,none found,none found,https://www.facebook.com/DeeJKellyLawLibrary/,http://law.tamu.edu/faculty-staff/library/about-the-library
South Texas College of Law,http://www.stcl.edu/,1303 San Jacinto Street,Houston,TX,77002-7006,Fred Parks Law Library,http://www.stcl.edu/library/libhome.html,none found,http://thefredparkslawlibrary.blogspot.com,https://www.facebook.com/South-Texas-College-of-Law-The-Fred-Parks-Law-Library-294526053119/,http://www.stcl.edu/library/LibraryStaff.html
Texas Southern University (Thurgood Marshall School of Law),http://www.tsulaw.edu/,3100 Cleburne Street,Houston,TX,77004,Law Library,http://www.tsulaw.edu/library/index.html,none found,none found,https://www.facebook.com/Thurgood-Marshall-School-of-Law-Library-43532766738/,http://www.tsulaw.edu/library/staff/index.html
University of Houston,http://www.law.uh.edu/,4604 Calhoun Rd.,Houston,TX,77004,John O'Quinn Law Library ,http://www.law.uh.edu/libraries/,none found,http://notabeneuh.blogspot.com/,none found,http://www.law.uh.edu/libraries/staff.asp
Texas Tech University,http://www.law.ttu.edu/,1802 Hartford,Lubbock,TX,79409-0004,Law School Library,http://www.law.ttu.edu/lawlibrary/,https://twitter.com/TechLawLibrary,https://texastechlawlibrary.wordpress.com/,https://www.facebook.com/TTULawLibrary/,http://www.law.ttu.edu/lawlibrary/library/about/contact/
St. Mary's University,http://www.stmarytx.edu/law,One Camino Santa Maria,San Antonio,TX,78228-8601,Sarita Kennedy East Law Library,http://lawlib.stmarytx.edu/,none found,none found,https://www.facebook.com/Sarita-Kenedy-East-Law-Library-108927029148861/,http://lawlib.stmarytx.edu/staffdirectory.html
Baylor University,http://www.baylor.edu/law/,1114 South University Parks Drive,Waco,TX,76798,Sheridan & John Eddie Williams Legal Research and Technology Center,http://www.baylor.edu/law/library/,none found,none found,none found,http://www.baylor.edu/law/library/index.php?id=74224
Brigham Young University,http://www.law.byu.edu/,"277 J. Reuben Clark Building, 341 E. Campus Drive",Provo,UT,84604,Howard W. Hunter Law Library,http://lawlib.byu.edu/,https://twitter.com/BYUlawlibrary,http://huntersquery.byulaw.info/wordpress/,https://www.facebook.com/BYUlawlibrary,http://lawlib.byu.edu/node/5783
University of Utah,http://www.law.utah.edu/,383 South University Street,Salt Lake City,UT,84112,James E. Faust Library,http://www.law.utah.edu/library/,none found,http://www.law.utah.edu/category/library-blog/,none found,http://www.law.utah.edu/library/about-the-library/departments-staff/
George Mason University,http://www.law.gmu.edu/,3301 Fairfax Dr.,Arlington,VA,22201,Law Library,http://www.law.gmu.edu/library,https://twitter.com/GMULawLibrary,http://blog.law.gmu.edu/library/,https://www.facebook.com/masonlawlibrary,http://www.law.gmu.edu/library/staff
Judge Advocate General's School,none found,600 Massie Road,Charlottesville,VA,22903-1781,School Library,none found,none found,none found,none found,none found
University of Virginia,http://www.law.virginia.edu/,580 Massie Road,Charlottesville,VA,22903-1738,Arthur J. Morris Law Library,http://www.law.virginia.edu/html/librarysite/library.htm,https://twitter.com/UVALawLibrary,http://uvalaw.typepad.com/library/,https://www.facebook.com/UVALawLibrary/,http://libguides.law.virginia.edu/c.php?g=39994&p=254084
Appalacian School of Law,http://www.asl.edu/,1221 Edgewater Dr,Grundy,VA,24614-7062,ASL Library,http://www.asl.edu/Library.html,https://twitter.com/ASL_Library,http://asllibrary.blogspot.com/,none found,http://www.asl.edu/Other-Pages/Directory.html?firstname=&lastname=&faculty=ViewAll&department=140&btnApply=Apply+Filter
Washington and Lee,http://www.law.wlu.edu/,1 Denny Circle ,Lexington,VA,24450,Wilbur C. Hall Law Library,http://law2.wlu.edu/library/,https://twitter.com/WLLawLib,https://wllawlib.wordpress.com,none found,http://law2.wlu.edu/library/page.asp?pageid=1428
Liberty University,http://law.liberty.edu/,1971 University Blvd,Lynchburg,VA,24515,Ehrhorn Law Library,http://www.liberty.edu/law/law-library/,none found,none found,none found,http://www.liberty.edu/law/law-library/faculty/
University of Richmond,http://law.richmond.edu/,28 Westhampton Way,Richmond,VA,23173,William Taylor Muse Law Library,http://law.richmond.edu/library/index.html,https://twitter.com/URLawLibrary,https://blog.richmond.edu/lawlibrary,https://www.facebook.com/URLawLibrary/,http://law.richmond.edu/library/contact.html
Regent University School of Law,http://www.regent.edu/acad/schlaw,1000 Regent University Drive,Virginia Beach,VA,23464-9800,Regent University Law Library,http://www.regent.edu/acad/schlaw/library/,https://twitter.com/RULawLibrary,http://regentlawlibrary.blogspot.com/,https://www.facebook.com/RULawLibrary/,http://libguides.regent.edu/lawlibdirectory
College of William & Mary Law School,http://law.wm.edu,613 S. Henry St.,Williamsburg,VA,23185,Wolf Law Library,http://law.wm.edu/library/home/index.php,none found,http://law.wm.edu/library/news/index.php,https://www.facebook.com/wolflawlibrary,http://law.wm.edu/library/about/staff/bydepartment/index.php
Vermont Law School,http://www.vermontlaw.edu/,164 Chelsea St,South Royalton,VT,05068,Julien and Virginia Cornell Library,http://www.vermontlaw.edu/academics/library,none found,https://vlslibrary.wordpress.com,https://www.facebook.com/Julien-and-Virginia-Cornell-Library-at-Vermont-Law-School-13501505727/,http://www.vermontlaw.edu/academics/library
Seattle University,http://www.law.seattleu.edu/,901 12th Avenue,Seattle,WA,98122-4411,Law Library,http://www.law.seattleu.edu/library,https://twitter.com/sulawlib,http://lawlibraryblog.seattleu.edu/,none found,http://www.law.seattleu.edu/library/about-us/library-staff
University of Washington,http://www.law.washington.edu/,4293 Memorial Way Northeast,Seattle,WA,98195,Marian Gould Gallagher Law Library,http://lib.law.washington.edu/,https://twitter.com/UWGallagher,http://gallagherlawlibrary.blogspot.com,https://www.facebook.com/GallagherLawLibrary/,http://lib.law.washington.edu/dir/staff.html
Gonzaga University,http://www.law.gonzaga.edu/,721 N. Cincinnati St.,Spokane,WA,99220-3528,Chastek Library,https://www.law.gonzaga.edu/library/,none found,none found,none found,https://www.law.gonzaga.edu/library/about/directory/
University of Wisconsin,http://www.law.wisc.edu/,975 Bascom Mall,Madison,WI,53706,Law Library,http://library.law.wisc.edu/,https://twitter.com/WisBlawg,http://wisblawg.law.wisc.edu,https://www.facebook.com/UWLawLibrary/,http://library.law.wisc.edu/about/staff/index.html
Marquette University,http://www.mu.edu/dept/law,1215 W. Michigan St.,Milwaukee,WI,53201,Ray & Kay Eckstein Law Library,http://law.marquette.edu/law-library/eckstein-law-library,none found,none found,none found,http://law.marquette.edu/law-library/staff-directory-0
West Virginia University,http://www.wvu.edu/~law/,101 Law School Drive,Morgantown,WV,26506,George R. Farmer Jr. Law Library,http://law.wvu.edu/library,https://twitter.com/wvulawlibrary,none found,https://www.facebook.com/WVULawLibrary,http://law.wvu.edu/library/library-staff
University of Wyoming,http://uwadmnweb.uwyo.edu/Law/,1000 E. University Ave.,Laramie,WY,82071,George W. Hopper Law Library,http://www.uwyo.edu/lawlib/,https://twitter.com/HopperLaw,none found,https://www.facebook.com/pages/George-W-Hopper-Law-Library/146989568699752,http://www.uwyo.edu/lawlib/libraryinfo/#staff
